{"type": "FeatureCollection", "features": [ {"type": "Feature", "properties": {"norad_id": 40315, "name": "COSMOS 2501 (702K)", "group": "gnss", "lat": -62.32893649415322, "lon": 87.55424687912873, "alt_km": 19108.809981525734, "timestamp": "2025-12-27T21:25:02.754485+00:00", "meta": {"OBJECT_NAME": "COSMOS 2501 (702K)", "OBJECT_ID": "2014-075A", "EPOCH": "2025-12-27T01:58:52.696704", "MEAN_MOTION": 2.13101389, "ECCENTRICITY": 0.00201, "INCLINATION": 63.616, "RA_OF_ASC_NODE": 196.3279, "ARG_OF_PERICENTER": 203.8362, "MEAN_ANOMALY": 156.1227, "EPHEMERIS_TYPE": 0, "CLASSIFICATION_TYPE": "U", "NORAD_CAT_ID": 40315, "ELEMENT_SET_NO": 999, "REV_AT_EPOCH": 8618, "BSTAR": 0, "MEAN_MOTION_DOT": 1.2e-06, "MEAN_MOTION_DDOT": 0}, "tle": {"line1": "1 40315U 14075A   25361.08255436  .00000120  00000+0  00000+0 0  9991", "line2": "2 40315  63.6160 196.3279 0020100 203.8362 156.1227  2.13101389 86186"}}, "geometry": {"type": "Point", "coordinates": [87.55424687912873, -62.32893649415322]}}, {"type": "Feature", "properties": {"norad_id": 40534, "name": "GPS BIIF-9  (PRN 26)", "group": "gnss", "lat": -48.724251949988286, "lon": 89.8032730716356, "alt_km": 20432.145020191037, "timestamp": "2025-12-27T21:25:02.754496+00:00", "meta": {"OBJECT_NAME": "GPS BIIF-9  (PRN 26)", "OBJECT_ID": "2015-013A", "EPOCH": "2025-12-26T13:11:10.214592", "MEAN_MOTION": 2.00561683, "ECCENTRICITY": 0.010755, "INCLINATION": 53.1959, "RA_OF_ASC_NODE": 211.3182, "ARG_OF_PERICENTER": 38.8079, "MEAN_ANOMALY": 322.028, "EPHEMERIS_TYPE": 0, "CLASSIFICATION_TYPE": "U", "NORAD_CAT_ID": 40534, "ELEMENT_SET_NO": 999, "REV_AT_EPOCH": 7836, "BSTAR": 0, "MEAN_MOTION_DOT": 8.8e-07, "MEAN_MOTION_DDOT": 0}, "tle": {"line1": "1 40534U 15013A   25360.54942378  .00000088  00000+0  00000+0 0  9998", "line2": "2 40534  53.1959 211.3182 0107550  38.8079 322.0280  2.00561683 78363"}}, "geometry": {"type": "Point", "coordinates": [89.8032730716356, -48.724251949988286]}}, {"type": "Feature", "properties": {"norad_id": 40544, "name": "GSAT0203 (GALILEO 7)", "group": "gnss", "lat": -19.244254012084276, "lon": -26.9336472588131, "alt_km": 23215.50894712415, "timestamp": "2025-12-27T21:25:02.754510+00:00", "meta": {"OBJECT_NAME": "GSAT0203 (GALILEO 7)", "OBJECT_ID": "2015-017A", "EPOCH": "2025-12-26T18:10:04.466496", "MEAN_MOTION": 1.70475666, "ECCENTRICITY": 0.00064599, "INCLINATION": 56.8428, "RA_OF_ASC_NODE": 346.298, "ARG_OF_PERICENTER": 275.3549, "MEAN_ANOMALY": 84.5807, "EPHEMERIS_TYPE": 0, "CLASSIFICATION_TYPE": "U", "NORAD_CAT_ID": 40544, "ELEMENT_SET_NO": 999, "REV_AT_EPOCH": 6626, "BSTAR": 0, "MEAN_MOTION_DOT": -6.1e-07, "MEAN_MOTION_DDOT": 0}, "tle": {"line1": "1 40544U 15017A   25360.75699614 -.00000061  00000+0  00000+0 0  9990", "line2": "2 40544  56.8428 346.2980 0006459 275.3549  84.5807  1.70475666 66267"}}, "geometry": {"type": "Point", "coordinates": [-26.9336472588131, -19.244254012084276]}}, {"type": "Feature", "properties": {"norad_id": 40545, "name": "GSAT0204 (GALILEO 8)", "group": "gnss", "lat": 0.06286022074221345, "lon": 166.23430719061463, "alt_km": 23221.25900551388, "timestamp": "2025-12-27T21:25:02.754521+00:00", "meta": {"OBJECT_NAME": "GSAT0204 (GALILEO 8)", "OBJECT_ID": "2015-017B", "EPOCH": "2025-12-20T13:26:28.826304", "MEAN_MOTION": 1.70475697, "ECCENTRICITY": 0.0006133, "INCLINATION": 56.8522, "RA_OF_ASC_NODE": 346.4847, "ARG_OF_PERICENTER": 266.5447, "MEAN_ANOMALY": 93.3948, "EPHEMERIS_TYPE": 0, "CLASSIFICATION_TYPE": "U", "NORAD_CAT_ID": 40545, "ELEMENT_SET_NO": 999, "REV_AT_EPOCH": 2920, "BSTAR": 0, "MEAN_MOTION_DOT": -7e-07, "MEAN_MOTION_DDOT": 0}, "tle": {"line1": "1 40545U 15017B   25354.56005586 -.00000070  00000+0  00000+0 0  9992", "line2": "2 40545  56.8522 346.4847 0006133 266.5447  93.3948  1.70475697 29206"}}, "geometry": {"type": "Point", "coordinates": [166.23430719061463, 0.06286022074221345]}}, {"type": "Feature", "properties": {"norad_id": 40549, "name": "BEIDOU-3S IGSO-1S (C31)", "group": "gnss", "lat": -26.183778300927884, "lon": 142.29235458209877, "alt_km": 35641.47183698536, "timestamp": "2025-12-27T21:25:02.754533+00:00", "meta": {"OBJECT_NAME": "BEIDOU-3S IGSO-1S (C31)", "OBJECT_ID": "2015-019A", "EPOCH": "2025-12-26T19:27:32.429664", "MEAN_MOTION": 1.00290016, "ECCENTRICITY": 0.00365106, "INCLINATION": 49.5251, "RA_OF_ASC_NODE": 297.5457, "ARG_OF_PERICENTER": 194.1839, "MEAN_ANOMALY": 350.566, "EPHEMERIS_TYPE": 0, "CLASSIFICATION_TYPE": "U", "NORAD_CAT_ID": 40549, "ELEMENT_SET_NO": 999, "REV_AT_EPOCH": 3934, "BSTAR": 0, "MEAN_MOTION_DOT": -1.81e-06, "MEAN_MOTION_DDOT": 0}, "tle": {"line1": "1 40549U 15019A   25360.81079201 -.00000181  00000+0  00000+0 0  9991", "line2": "2 40549  49.5251 297.5457 0036510 194.1839 350.5660  1.00290016 39342"}}, "geometry": {"type": "Point", "coordinates": [142.29235458209877, -26.183778300927884]}}, {"type": "Feature", "properties": {"norad_id": 40730, "name": "GPS BIIF-10 (PRN 08)", "group": "gnss", "lat": 34.86656137927125, "lon": 63.89931952860272, "alt_km": 20266.391398110023, "timestamp": "2025-12-27T21:25:02.754544+00:00", "meta": {"OBJECT_NAME": "GPS BIIF-10 (PRN 08)", "OBJECT_ID": "2015-033A", "EPOCH": "2025-12-26T05:05:23.462304", "MEAN_MOTION": 2.00564909, "ECCENTRICITY": 0.0111756, "INCLINATION": 54.1189, "RA_OF_ASC_NODE": 274.2184, "ARG_OF_PERICENTER": 27.1685, "MEAN_ANOMALY": 333.4602, "EPHEMERIS_TYPE": 0, "CLASSIFICATION_TYPE": "U", "NORAD_CAT_ID": 40730, "ELEMENT_SET_NO": 999, "REV_AT_EPOCH": 7652, "BSTAR": 0, "MEAN_MOTION_DOT": -2e-07, "MEAN_MOTION_DDOT": 0}, "tle": {"line1": "1 40730U 15033A   25360.21207711 -.00000020  00000+0  00000+0 0  9994", "line2": "2 40730  54.1189 274.2184 0111756  27.1685 333.4602  2.00564909 76528"}}, "geometry": {"type": "Point", "coordinates": [63.89931952860272, 34.86656137927125]}}, {"type": "Feature", "properties": {"norad_id": 40748, "name": "BEIDOU-3S M2S (C58)", "group": "gnss", "lat": -54.50984646431821, "lon": -153.33029558036878, "alt_km": 21501.34643840605, "timestamp": "2025-12-27T21:25:02.754558+00:00", "meta": {"OBJECT_NAME": "BEIDOU-3S M2S (C58)", "OBJECT_ID": "2015-037A", "EPOCH": "2025-12-26T23:05:37.447872", "MEAN_MOTION": 1.86229536, "ECCENTRICITY": 0.00118283, "INCLINATION": 55.026, "RA_OF_ASC_NODE": 307.9762, "ARG_OF_PERICENTER": 271.2374, "MEAN_ANOMALY": 88.6344, "EPHEMERIS_TYPE": 0, "CLASSIFICATION_TYPE": "U", "NORAD_CAT_ID": 40748, "ELEMENT_SET_NO": 999, "REV_AT_EPOCH": 7091, "BSTAR": 0, "MEAN_MOTION_DOT": -5.8e-07, "MEAN_MOTION_DDOT": 0}, "tle": {"line1": "1 40748U 15037A   25360.96223898 -.00000058  00000+0  00000+0 0  9994", "line2": "2 40748  55.0260 307.9762 0011828 271.2374  88.6344  1.86229536 70915"}}, "geometry": {"type": "Point", "coordinates": [-153.33029558036878, -54.50984646431821]}}, {"type": "Feature", "properties": {"norad_id": 40749, "name": "BEIDOU-3S M1S (C57)", "group": "gnss", "lat": 50.04461809358394, "lon": 71.3170206141586, "alt_km": 21522.96622301627, "timestamp": "2025-12-27T21:25:02.754569+00:00", "meta": {"OBJECT_NAME": "BEIDOU-3S M1S (C57)", "OBJECT_ID": "2015-037B", "EPOCH": "2025-12-27T04:34:21.423072", "MEAN_MOTION": 1.86253811, "ECCENTRICITY": 0.0003729, "INCLINATION": 55.0221, "RA_OF_ASC_NODE": 307.9572, "ARG_OF_PERICENTER": 3.3585, "MEAN_ANOMALY": 356.651, "EPHEMERIS_TYPE": 0, "CLASSIFICATION_TYPE": "U", "NORAD_CAT_ID": 40749, "ELEMENT_SET_NO": 999, "REV_AT_EPOCH": 7092, "BSTAR": 0, "MEAN_MOTION_DOT": -5.9e-07, "MEAN_MOTION_DDOT": 0}, "tle": {"line1": "1 40749U 15037B   25361.19052573 -.00000059  00000+0  00000+0 0  9992", "line2": "2 40749  55.0221 307.9572 0003729   3.3585 356.6510  1.86253811 70928"}}, "geometry": {"type": "Point", "coordinates": [71.3170206141586, 50.04461809358394]}}, {"type": "Feature", "properties": {"norad_id": 40889, "name": "GSAT0205 (GALILEO 9)", "group": "gnss", "lat": -30.25580325166955, "lon": -157.76367307776437, "alt_km": 23223.091067854555, "timestamp": "2025-12-27T21:25:02.754583+00:00", "meta": {"OBJECT_NAME": "GSAT0205 (GALILEO 9)", "OBJECT_ID": "2015-045A", "EPOCH": "2025-12-23T06:16:38.782272", "MEAN_MOTION": 1.70473104, "ECCENTRICITY": 0.00062228, "INCLINATION": 55.0001, "RA_OF_ASC_NODE": 226.4673, "ARG_OF_PERICENTER": 42.5636, "MEAN_ANOMALY": 317.5856, "EPHEMERIS_TYPE": 0, "CLASSIFICATION_TYPE": "U", "NORAD_CAT_ID": 40889, "ELEMENT_SET_NO": 999, "REV_AT_EPOCH": 6401, "BSTAR": 0, "MEAN_MOTION_DOT": 7.3e-07, "MEAN_MOTION_DDOT": 0}, "tle": {"line1": "1 40889U 15045A   25357.26155998  .00000073  00000+0  00000+0 0  9999", "line2": "2 40889  55.0001 226.4673 0006222  42.5636 317.5856  1.70473104 64013"}}, "geometry": {"type": "Point", "coordinates": [-157.76367307776437, -30.25580325166955]}}, {"type": "Feature", "properties": {"norad_id": 40890, "name": "GSAT0206 (GALILEO 10)", "group": "gnss", "lat": -5.526168228609267, "lon": 50.232732189895806, "alt_km": 23233.2462723902, "timestamp": "2025-12-27T21:25:02.754594+00:00", "meta": {"OBJECT_NAME": "GSAT0206 (GALILEO 10)", "OBJECT_ID": "2015-045B", "EPOCH": "2025-12-27T00:02:25.632384", "MEAN_MOTION": 1.70473162, "ECCENTRICITY": 0.000413, "INCLINATION": 54.998, "RA_OF_ASC_NODE": 226.3589, "ARG_OF_PERICENTER": 41.9933, "MEAN_ANOMALY": 318.124, "EPHEMERIS_TYPE": 0, "CLASSIFICATION_TYPE": "U", "NORAD_CAT_ID": 40890, "ELEMENT_SET_NO": 999, "REV_AT_EPOCH": 6410, "BSTAR": 0, "MEAN_MOTION_DOT": 7e-07, "MEAN_MOTION_DDOT": 0}, "tle": {"line1": "1 40890U 15045B   25361.00168556  .00000070  00000+0  00000+0 0  9999", "line2": "2 40890  54.9980 226.3589 0004130  41.9933 318.1240  1.70473162 64101"}}, "geometry": {"type": "Point", "coordinates": [50.232732189895806, -5.526168228609267]}}]}